{
  "links" : {
    "next" : "https://api.nasa.gov/neo/rest/v1/feed?start_date=1997-05-23&end_date=1997-05-23&detailed=true&api_key=t0TVs3DtDT2H8Oy2Zy8m2eVrNsAVKAexjcZXUckd",
    "prev" : "https://api.nasa.gov/neo/rest/v1/feed?start_date=1997-05-21&end_date=1997-05-21&detailed=true&api_key=t0TVs3DtDT2H8Oy2Zy8m2eVrNsAVKAexjcZXUckd",
    "self" : "https://api.nasa.gov/neo/rest/v1/feed?start_date=1997-05-22&end_date=1997-05-22&detailed=true&api_key=t0TVs3DtDT2H8Oy2Zy8m2eVrNsAVKAexjcZXUckd"
  },
  "element_count" : 7,
  "near_earth_objects" : {
    "1997-05-22" : [ {
      "links" : {
        "self" : "https://api.nasa.gov/neo/rest/v1/neo/2488580?api_key=t0TVs3DtDT2H8Oy2Zy8m2eVrNsAVKAexjcZXUckd"
      },
      "neo_reference_id" : "2488580",
      "name" : "488580 (2002 GK8)",
      "nasa_jpl_url" : "http://ssd.jpl.nasa.gov/sbdb.cgi?sstr=2488580",
      "absolute_magnitude_h" : 19.6,
      "estimated_diameter" : {
        "kilometers" : {
          "estimated_diameter_min" : 0.3195618867,
          "estimated_diameter_max" : 0.7145621017
        },
        "meters" : {
          "estimated_diameter_min" : 319.5618867213,
          "estimated_diameter_max" : 714.5621017269
        },
        "miles" : {
          "estimated_diameter_min" : 0.1985664891,
          "estimated_diameter_max" : 0.4440081677
        },
        "feet" : {
          "estimated_diameter_min" : 1048.4314204307,
          "estimated_diameter_max" : 2344.3639258298
        }
      },
      "is_potentially_hazardous_asteroid" : false,
      "close_approach_data" : [ {
        "close_approach_date" : "1997-05-22",
        "epoch_date_close_approach" : 864284400000,
        "relative_velocity" : {
          "kilometers_per_second" : "18.9838265743",
          "kilometers_per_hour" : "68341.7756674948",
          "miles_per_hour" : "42464.9216640608"
        },
        "miss_distance" : {
          "astronomical" : "0.4895392315",
          "lunar" : "190.4307556152",
          "kilometers" : "73234024",
          "miles" : "45505516"
        },
        "orbiting_body" : "Earth"
      } ],
      "orbital_data" : {
        "orbit_id" : "36",
        "orbit_determination_date" : "2017-05-15 19:01:32",
        "orbit_uncertainty" : "0",
        "minimum_orbit_intersection" : ".407205",
        "jupiter_tisserand_invariant" : "3.673",
        "epoch_osculation" : "2458000.5",
        "eccentricity" : ".4012636659770433",
        "semi_major_axis" : "1.841313730287187",
        "inclination" : "38.99895641793801",
        "ascending_node_longitude" : "47.81972372115175",
        "orbital_period" : "912.6202778399499",
        "perihelion_distance" : "1.102461432658285",
        "perihelion_argument" : "266.7821251782493",
        "aphelion_distance" : "2.580166027916088",
        "perihelion_time" : "2457989.101591941197",
        "mean_anomaly" : "4.496313527989394",
        "mean_motion" : ".3944685525200819",
        "equinox" : "J2000"
      }
    } ]
  }
}